NORAD_CAT_ID,OBJECT_NAME,OBJECT_TYPE,EPOCH,MEAN_MOTION,ECCENTRICITY,INCLINATION,RA_OF_ASC_NODE,ARG_OF_PERICENTER,MEAN_ANOMALY,BSTAR,MEAN_MOTION_DOT,MEAN_MOTION_DDOT,TLE_LINE0,TLE_LINE1,TLE_LINE2,SEMIMAJOR_AXIS,PERIOD,APOGEE,PERIGEE,DECAYED
52122.0,STARLINK-3726,PAYLOAD,2024-06-17 21:52:28,15.08842576,0.0001388,53.2195,26.3076,97.0692,263.0458,1.0698e-05,-1.18e-06,0.0,0 STARLINK-3726,1 52122U 22029AL  24169.91144632 -.00000118  00000-0  10698-4 0  9998,2 52122  53.2195  26.3076 0001388  97.0692 263.0458 15.08842576125716,6917.873,95.437,540.698,538.777,0.0
52122.0,STARLINK-3726,PAYLOAD,2024-06-17 23:27:51,15.08844766,0.0001446,53.2197,26.0106,103.4299,256.6854,1.5573e-05,-4e-07,0.0,0 STARLINK-3726,1 52122U 22029AL  24169.97768470 -.00000040  00000-0  15573-4 0  9997,2 52122  53.2197  26.0106 0001446 103.4299 256.6854 15.08844766125721,6917.866,95.437,540.731,538.73,0.0
52122.0,STARLINK-3726,PAYLOAD,2024-06-18 07:24:47,15.08843362,0.0001471,53.22,24.5232,104.4757,255.6399,-1.3849e-05,-5.08e-06,0.0,0 STARLINK-3726,1 52122U 22029AL  24170.30888600 -.00000508  00000-0 -13849-4 0  9998,2 52122  53.2200  24.5232 0001471 104.4757 255.6399 15.08843362125776,6917.87,95.437,540.753,538.717,0.0
52122.0,STARLINK-3726,PAYLOAD,2024-06-18 20:07:52,15.08840587,0.0001395,53.2194,22.143,85.6613,274.4538,0.00011911,1.608e-05,0.0,0 STARLINK-3726,1 52122U 22029AL  24170.83880581  .00001608  00000-0  11911-3 0  9993,2 52122  53.2194  22.1430 0001395  85.6613 274.4538 15.08840587125857,6917.879,95.438,540.709,538.779,0.0
52122.0,STARLINK-3726,PAYLOAD,2024-06-19 07:15:34,15.08840352,0.0001222,53.218,20.0645,89.2514,270.8619,6.046e-05,6.75e-06,0.0,0 STARLINK-3726,1 52122U 22029AL  24171.30248719  .00000675  00000-0  60460-4 0  9994,2 52122  53.2180  20.0645 0001222  89.2514 270.8619 15.08840352125924,6917.879,95.438,540.59,538.899,0.0
52122.0,STARLINK-3726,PAYLOAD,2024-06-19 13:37:07,15.08838561,0.0001315,53.2187,18.8726,90.3298,269.7845,6.2292e-05,7.04e-06,0.0,0 STARLINK-3726,1 52122U 22029AL  24171.56744880  .00000704  00000-0  62292-4 0  9990,2 52122  53.2187  18.8726 0001315  90.3298 269.7845 15.08838561125962,6917.885,95.438,540.659,538.84,0.0
52122.0,STARLINK-3726,PAYLOAD,2024-06-19 19:58:40,15.08836242,0.0001305,53.2183,17.6862,95.5393,264.5748,-2.4789e-05,-6.82e-06,0.0,0 STARLINK-3726,1 52122U 22029AL  24171.83241398 -.00000682  00000-0 -24789-4 0  9992,2 52122  53.2183  17.6862 0001305  95.5393 264.5748 15.08836242126003,6917.892,95.438,540.66,538.854,0.0
52122.0,STARLINK-3726,PAYLOAD,2024-06-20 13:27:54,15.0883747,0.0001099,53.2173,14.4123,94.4221,265.6896,2.9723e-05,1.85e-06,0.0,0 STARLINK-3726,1 52122U 22029AL  24172.56105160  .00000185  00000-0  29723-4 0  9998,2 52122  53.2173  14.4123 0001099  94.4221 265.6896 15.08837470126117,6917.888,95.438,540.513,538.993,0.0
52122.0,STARLINK-3726,PAYLOAD,2024-06-20 19:49:27,15.08846584,0.0001224,53.2179,13.2236,97.0253,263.0878,-5.7949e-05,-1.21e-05,0.0,0 STARLINK-3726,1 52122U 22029AL  24172.82600954 -.00001210  00000-0 -57949-4 0  9991,2 52122  53.2179  13.2236 0001224  97.0253 263.0878 15.08846584126151,6917.86,95.437,540.572,538.879,0.0
52122.0,STARLINK-3726,PAYLOAD,2024-06-21 13:18:43,15.08819212,0.0001107,53.2169,9.9497,111.8631,248.2479,4.9617e-05,5.02e-06,0.0,0 STARLINK-3726,1 52122U 22029AL  24173.55466677  .00000502  00000-0  49617-4 0  9998,2 52122  53.2169   9.9497 0001107 111.8631 248.2479 15.08819212126268,6917.944,95.439,540.575,539.043,0.0
52122.0,STARLINK-3726,PAYLOAD,2024-06-21 19:40:15,15.08825223,0.0001106,53.2167,8.7633,93.1645,266.9474,-2.8395e-05,-7.39e-06,0.0,0 STARLINK-3726,1 52122U 22029AL  24173.81962858 -.00000739  00000-0 -28395-4 0  9993,2 52122  53.2167   8.7633 0001106  93.1645 266.9474 15.08825223126307,6917.926,95.438,540.556,539.025,0.0
52122.0,STARLINK-3726,PAYLOAD,2024-06-22 19:31:01,15.08847923,0.0001142,53.2182,4.3009,90.9886,269.1237,0.00010957,1.457e-05,0.0,0 STARLINK-3726,1 52122U 22029AL  24174.81321457  .00001457  00000-0  10957-3 0  9998,2 52122  53.2182   4.3009 0001142  90.9886 269.1237 15.08847923126454,6917.856,95.437,540.511,538.931,0.0
52122.0,STARLINK-3726,PAYLOAD,2024-06-23 13:00:16,15.08842735,0.0001117,53.2181,1.0275,93.5836,266.5284,0.00016668,2.366e-05,0.0,0 STARLINK-3726,1 52122U 22029AL  24175.54185697  .00002366  00000-0  16668-3 0  9998,2 52122  53.2181   1.0275 0001117  93.5836 266.5284 15.08842735126569,6917.872,95.437,540.51,538.964,0.0
52122.0,STARLINK-3726,PAYLOAD,2024-06-23 17:46:25,15.08846837,0.0001114,53.218,0.1354,88.6754,271.4366,0.00019785,2.863e-05,0.0,0 STARLINK-3726,1 52122U 22029AL  24175.74057400  .00002863  00000-0  19785-3 0  9995,2 52122  53.2180   0.1354 0001114  88.6754 271.4366 15.08846837126593,6917.859,95.437,540.495,538.954,0.0
52122.0,STARLINK-3726,PAYLOAD,2024-06-24 11:15:40,15.08851278,0.0001145,53.2179,356.8725,64.7569,295.3541,-8.6486e-07,-3.02e-06,0.0,0 STARLINK-3726,1 52122U 22029AL  24176.46921657 -.00000302  00000-0 -86486-6 0  9992,2 52122  53.2179 356.8725 0001145  64.7569 295.3541 15.08851278126705,6917.846,95.437,540.503,538.919,0.0
52122.0,STARLINK-3726,PAYLOAD,2024-06-24 17:37:12,15.08849557,0.0001115,53.2181,355.6806,87.885,272.2269,-2.4472e-05,-6.77e-06,0.0,0 STARLINK-3726,1 52122U 22029AL  24176.73417583 -.00000677  00000-0 -24472-4 0  9990,2 52122  53.2181 355.6806 0001115  87.8850 272.2269 15.08849557126743,6917.851,95.437,540.488,538.945,0.0
52122.0,STARLINK-3726,PAYLOAD,2024-06-25 19:03:21,15.08862892,0.0001184,53.2182,350.9222,69.8496,290.2623,0.00014675,2.05e-05,0.0,0 STARLINK-3726,1 52122U 22029AL  24177.79399345  .00002050  00000-0  14675-3 0  9990,2 52122  53.2182 350.9222 0001184  69.8496 290.2623 15.08862892126905,6917.81,95.436,540.494,538.856,0.0
52122.0,STARLINK-3726,PAYLOAD,2024-06-27 04:26:28,15.08837775,0.0001185,53.2186,344.6771,74.4554,285.6569,-3.1922e-05,-7.96e-06,0.0,0 STARLINK-3726,1 52122U 22029AL  24179.18505093 -.00000796  00000-0 -31922-4 0  9996,2 52122  53.2186 344.6771 0001185  74.4554 285.6569 15.08837775127119,6917.887,95.438,540.572,538.932,0.0
52122.0,STARLINK-3726,PAYLOAD,2024-06-27 17:09:34,15.08821912,0.0001124,53.2178,342.2929,107.1066,253.0049,-8.0792e-05,-1.573e-05,0.0,0 STARLINK-3726,1 52122U 22029AL  24179.71497925 -.00001573  00000-0 -80792-4 0  9992,2 52122  53.2178 342.2929 0001124 107.1066 253.0049 15.08821912127190,6917.936,95.439,540.578,539.023,0.0
52122.0,STARLINK-3726,PAYLOAD,2024-06-28 04:17:15,15.08839166,9.99e-05,53.2187,340.2177,82.4554,277.6551,-9.7379e-05,-1.837e-05,0.0,0 STARLINK-3726,1 52122U 22029AL  24180.17864935 -.00001837  00000-0 -97379-4 0  9995,2 52122  53.2187 340.2177 0000999  82.4554 277.6551 15.08839166127267,6917.883,95.438,540.439,539.057,0.0
52122.0,STARLINK-3726,PAYLOAD,2024-06-28 13:49:38,15.09066961,0.0002905,53.2176,338.4336,50.2837,309.8411,-0.0025631,-0.00041105,0.0,0 STARLINK-3726,1 52122U 22029AL  24180.57613552 -.00041105  00000-0 -25631-2 0  9998,2 52122  53.2176 338.4336 0002905  50.2837 309.8411 15.09066961127323,6917.187,95.423,541.061,537.042,0.0
52122.0,STARLINK-3726,PAYLOAD,2024-06-28 17:00:18,15.08850086,8.91e-05,53.2168,337.8361,77.9241,282.1851,0.00040179,6.114e-05,0.0,0 STARLINK-3726,1 52122U 22029AL  24180.70855000  .00006114  00000-0  40179-3 0  9993,2 52122  53.2168 337.8361 0000891  77.9241 282.1851 15.08850086127343,6917.85,95.437,540.331,539.098,0.0
52122.0,STARLINK-3726,PAYLOAD,2024-06-28 21:46:27,15.08854083,8.85e-05,53.2173,336.9441,95.5389,264.5704,0.00041353,6.302e-05,0.0,0 STARLINK-3726,1 52122U 22029AL  24180.90726595  .00006302  00000-0  41353-3 0  9995,2 52122  53.2173 336.9441 0000885  95.5389 264.5704 15.08854083127375,6917.837,95.437,540.315,539.09,0.0
52122.0,STARLINK-3726,PAYLOAD,2024-06-29 04:08:03,15.08820636,0.0001125,53.2169,335.7547,96.8544,263.2576,0.00011653,1.566e-05,0.0,0 STARLINK-3726,1 52122U 22029AL  24181.17225808  .00001566  00000-0  11653-3 0  9993,2 52122  53.2169 335.7547 0001125  96.8544 263.2576 15.08820636127414,6917.94,95.439,540.583,539.026,0.0
52122.0,STARLINK-3726,PAYLOAD,2024-06-29 13:40:22,15.08822639,0.000108,53.2165,333.971,96.8105,263.301,0.00012222,1.657e-05,0.0,0 STARLINK-3726,1 52122U 22029AL  24181.56970169  .00001657  00000-0  12222-3 0  9997,2 52122  53.2165 333.9710 0001080  96.8105 263.3010 15.08822639127470,6917.933,95.439,540.546,539.051,0.0
52122.0,STARLINK-3726,PAYLOAD,2024-06-29 16:51:08,15.08826742,0.000115,53.2167,333.3765,95.0529,265.0594,0.00015427,2.167e-05,0.0,0 STARLINK-3726,1 52122U 22029AL  24181.70218005  .00002167  00000-0  15427-3 0  9994,2 52122  53.2167 333.3765 0001150  95.0529 265.0594 15.08826742127492,6917.921,95.438,540.581,538.99,0.0
52122.0,STARLINK-3726,PAYLOAD,2024-06-30 10:20:23,15.08830997,8.6e-05,53.2179,330.1066,92.2285,267.8805,3.4936e-05,2.68e-06,0.0,0 STARLINK-3726,1 52122U 22029AL  24182.43082387  .00000268  00000-0  34936-4 0  9994,2 52122  53.2179 330.1066 0000860  92.2285 267.8805 15.08830997127604,6917.908,95.438,540.368,539.178,0.0
52122.0,STARLINK-3726,PAYLOAD,2024-06-30 13:31:09,15.08836413,0.0001004,53.2173,329.5114,96.4017,263.7089,6.7002e-06,-1.81e-06,0.0,0 STARLINK-3726,1 52122U 22029AL  24182.56330198 -.00000181  00000-0  67002-5 0  9990,2 52122  53.2173 329.5114 0001004  96.4017 263.7089 15.08836413127624,6917.891,95.438,540.451,539.062,0.0
52122.0,STARLINK-3726,PAYLOAD,2024-06-30 16:41:55,15.08837895,9.46e-05,53.2173,328.9205,77.7726,282.3372,4.8155e-05,4.79e-06,0.0,0 STARLINK-3726,1 52122U 22029AL  24182.69578125  .00000479  00000-0  48155-4 0  9994,2 52122  53.2173 328.9205 0000946  77.7726 282.3372 15.08837895127640,6917.887,95.438,540.406,539.097,0.0
52122.0,STARLINK-3726,PAYLOAD,2024-07-01 02:14:13,15.08849444,8.72e-05,53.217,327.136,88.3116,271.7976,-0.00012019,-2.2e-05,0.0,0 STARLINK-3726,1 52122U 22029AL  24183.09321620 -.00002200  00000-0 -12019-3 0  9990,2 52122  53.2170 327.1360 0000872  88.3116 271.7976 15.08849444127701,6917.852,95.437,540.32,539.113,0.0
